STARLINK-6340           
1 57361U 23099AK  26079.98973745  .00000517  00000+0  53318-4 0  9997
2 57361  43.0024 174.7787 0001388 276.7370  83.3314 15.02538855147961
STARLINK-6343           
1 57362U 23099AL  26079.97752950  .00000431  00000+0  46946-4 0  9994
2 57362  43.0026 174.6859 0001222 277.0314  83.0390 15.02537220147968
STARLINK-6356           
1 57363U 23099AM  26079.31941260  .00000112  00000+0  23376-4 0  9995
2 57363  43.0023 178.3484 0001404 273.9595  86.1087 15.02535667147868
STARLINK-6338           
1 57364U 23099AN  26079.97642122 -.00000813  00000+0 -45110-4 0  9993
2 57364  43.0018 174.6750 0001118 278.1086  81.9629 15.02540266147969
STARLINK-5007           
1 57365U 23099AP  26079.96643335  .00002040  00000+0  16609-3 0  9992
2 57365  43.0022 174.5971 0000983 259.7537 100.3194 15.02527763147964
STARLINK-6174           
1 57366U 23099AQ  26079.96976150  .00000591  00000+0  58795-4 0  9999
2 57366  43.0026 174.6265 0001289 274.7231  85.3464 15.02535505147969
STARLINK-6215           
1 57367U 23099AR  26080.00001157  .00000520  00000+0  29065-4 0  9993
2 57367  42.9997 159.0632 0001126 269.9218 177.4351 15.26758696  5797
STARLINK-6218           
1 57368U 23099AS  26079.96421204  .00001697  00000+0  14066-3 0  9996
2 57368  43.0027 174.5804 0001372 270.6659  89.4027 15.02540257147962
STARLINK-6168           
1 57369U 23099AT  26079.97310215  .00000300  00000+0  37293-4 0  9995
2 57369  43.0033 174.6525 0001368 274.6561  85.4125 15.02527982147967
STARLINK-5353           
1 57370U 23099AU  26079.55868658 -.00000232  00000+0 -21074-5 0  9997
2 57370  43.0028 176.6982 0001172 273.6075  86.4633 15.02536743147908
STARLINK-6032           
1 57371U 23099AV  26079.63848669 -.00001159  00000+0 -70762-4 0  9993
2 57371  43.0015 176.4398 0001046 280.0149  80.0575 15.02539520147910
STARLINK-5975           
1 57372U 23099AW  26079.94978176  .00000635  00000+0  62056-4 0  9998
2 57372  43.0035 174.4654 0001218 270.6734  89.3968 15.02534577147962
STARLINK-6370           
1 57373U 23099AX  26079.60641244 -.00000116  00000+0  64957-5 0  9993
2 57373  43.0025 177.0465 0001544 269.7495  90.3171 15.02538885147904
STARLINK-6369           
1 57374U 23099AY  26080.25003472  .00901883  00000+0  33644-1 0  9997
2 57374  42.9997 158.3742 0001390 284.9496 163.0889 15.24201255  5831
STARLINK-6363           
1 57375U 23099AZ  26079.69053516  .00000315  00000+0  38383-4 0  9996
2 57375  43.0033 175.9659 0001259 265.1040  94.9659 15.02539101147921
STARLINK-6367           
1 57376U 23099BA  26080.25003472  .00101421  00000+0  49803-2 0  9994
2 57376  43.0003 172.0571 0001036 291.4239 228.7729 15.17000691  5825
STARLINK-6358           
1 57377U 23099BB  26079.95089995  .00000918  00000+0  83086-4 0  9996
2 57377  43.0006 174.4817 0002383 261.6357  98.4215 15.02524253147967
STARLINK-6364           
1 57378U 23099BC  26080.25003472  .00072660  00000+0  35882-2 0  9990
2 57378  42.9994 146.3428 0001990 280.9570 114.3153 15.16974253  5788
STARLINK-6361           
1 57379U 23099BD  26080.25003472  .01287812  00000+0  59585-1 0  9994
2 57379  42.9999 172.2570 0001627 296.1345 139.2660 15.16709460  5679
STARLINK-6366           
1 57380U 23099BE  26080.25003472  .01333936  00000+0  62175-1 0  9994
2 57380  43.0000 146.5980 0002579 247.9257  37.1576 15.16350651  5786
STARLINK-6371           
1 57381U 23099BF  26080.25003472  .00021479  00000+0  80816-3 0  9994
2 57381  43.0005 158.1803 0001774 272.0902 253.3417 15.26736829  5778
STARLING 4              
1 57386U 23100A   26080.04539196 -.00000001  00000+0  61151-5 0  9998
2 57386  99.5122  77.2449 0007485  43.7150 316.4663 15.06246042146635
STARLING 2              
1 57387U 23100B   26080.24509375  .00006345  00000+0  43805-3 0  9997
2 57387  99.5126  77.5129 0006449  53.8725 306.3092 15.06249748146660
STARLING 1              
1 57388U 23100C   26080.24480451  .00005759  00000+0  39817-3 0  9997
2 57388  99.5164  78.0752 0004931 189.3816 170.7314 15.06258856146661
STARLING 3              
1 57389U 23100D   26080.26784744  .00007066  00000+0  42479-3 0  9993
2 57389  99.5104  79.7065 0006325  46.2528 313.9219 15.11298172146780
LEMUR-2-MANO            
1 57390U 23100E   26080.03574968  .00157333  00000+0  16414-2 0  9997
2 57390  99.4507 106.3553 0003293 189.4367 170.6824 15.63985597148254
LEMUR-2-DEVERILL-M-T    
1 57391U 23100F   26080.25283164  .00031597  00000+0  91909-3 0  9993
2 57391  99.4565  93.9372 0006492 349.8173  10.2932 15.35380000147738
LEO 3                   
1 57392U 23100G   26080.30251150 -.00000032  00000+0  15281-4 0  9991
2 57392  99.5488 205.4981 0017579 240.1105 119.8294 13.68418163133622
TIANMU-1 07             
1 57399U 23101A   26080.23269660  .00007534  00000+0  26898-3 0  9994
2 57399  97.2697 132.9231 0004589 112.0366 248.1363 15.29129343148202
