OBJECT_NAME,OBJECT_ID,EPOCH,MEAN_MOTION,ECCENTRICITY,INCLINATION,RA_OF_ASC_NODE,ARG_OF_PERICENTER,MEAN_ANOMALY,EPHEMERIS_TYPE,CLASSIFICATION_TYPE,NORAD_CAT_ID,ELEMENT_SET_NO,REV_AT_EPOCH,BSTAR,MEAN_MOTION_DOT,MEAN_MOTION_DDOT,OBJECT_TYPE
STARLINK-6340,2023-099AK,2026-03-20T23:45:13.315680,15.02538855,.00013886,43.0024,174.7787,276.7370,83.3314,0,U,57361,999,14796,.53317599E-4,.517E-5,0,Active
STARLINK-6343,2023-099AL,2026-03-20T23:27:38.548800,15.02537220,.00012223,43.0026,174.6859,277.0314,83.0390,0,U,57362,999,14796,.46946056E-4,.431E-5,0,Active
STARLINK-6356,2023-099AM,2026-03-20T07:39:57.248640,15.02535667,.0001404,43.0023,178.3484,273.9595,86.1087,0,U,57363,999,14786,.23376E-4,.112E-5,0,Active
STARLINK-6338,2023-099AN,2026-03-20T23:26:02.793408,15.02540266,.00011187,43.0018,174.6750,278.1086,81.9629,0,U,57364,999,14796,-.45110125E-4,-.813E-5,0,Active
STARLINK-5007,2023-099AP,2026-03-20T23:11:39.841440,15.02527763,.00009837,43.0022,174.5971,259.7537,100.3194,0,U,57365,999,14796,.16609326E-3,.204E-4,0,Active
STARLINK-6174,2023-099AQ,2026-03-20T23:16:27.393600,15.02535505,.00012893,43.0026,174.6265,274.7231,85.3464,0,U,57366,999,14796,.58794902E-4,.591E-5,0,Active
STARLINK-6215,2023-099AR,2026-03-21T00:00:00.999648,15.26758696,.00011265,42.9997,159.0632,269.9218,177.4351,0,U,57367,999,579,.29065358E-4,.52E-5,0,Active
STARLINK-6218,2023-099AS,2026-03-20T23:08:27.920256,15.02540257,.00013724,43.0027,174.5804,270.6659,89.4027,0,U,57368,999,14796,.14066405E-3,.1697E-4,0,Active
STARLINK-6168,2023-099AT,2026-03-20T23:21:16.025760,15.02527982,.00013689,43.0033,174.6525,274.6561,85.4125,0,U,57369,999,14796,.37293392E-4,.3E-5,0,Active
STARLINK-5353,2023-099AU,2026-03-20T13:24:30.520512,15.02536743,.00011724,43.0028,176.6982,273.6075,86.4633,0,U,57370,999,14790,-.2107434E-5,-.232E-5,0,Active
STARLINK-6032,2023-099AV,2026-03-20T15:19:25.250016,15.02539520,.0001046,43.0015,176.4398,280.0149,80.0575,0,U,57371,999,14791,-.70762E-4,-.1159E-4,0,Active
STARLINK-5975,2023-099AW,2026-03-20T22:47:41.144064,15.02534577,.00012188,43.0035,174.4654,270.6734,89.3968,0,U,57372,999,14796,.62056257E-4,.635E-5,0,Active
STARLINK-6370,2023-099AX,2026-03-20T14:33:14.034816,15.02538885,.0001544,43.0025,177.0465,269.7495,90.3171,0,U,57373,999,14790,.64957E-5,-.116E-5,0,Active
STARLINK-6369,2023-099AY,2026-03-21T06:00:02.999808,15.24201255,.00013908,42.9997,158.3742,284.9496,163.0889,0,U,57374,999,583,.33643734E-1,.901883E-2,0,Active
STARLINK-6363,2023-099AZ,2026-03-20T16:34:22.237824,15.02539101,.00012591,43.0033,175.9659,265.1040,94.9659,0,U,57375,999,14792,.38382857E-4,.315E-5,0,Active
STARLINK-6367,2023-099BA,2026-03-21T06:00:02.999808,15.17000691,.0001036,43.0003,172.0571,291.4239,228.7729,0,U,57376,999,582,.49803018E-2,.101421E-2,0,Active
STARLINK-6358,2023-099BB,2026-03-20T22:49:17.755680,15.02524253,.00023832,43.0006,174.4817,261.6357,98.4215,0,U,57377,999,14796,.83085592E-4,.918E-5,0,Active
STARLINK-6364,2023-099BC,2026-03-21T06:00:02.999808,15.16974253,.00019902,42.9994,146.3428,280.9570,114.3153,0,U,57378,999,578,.35881947E-2,.7266E-3,0,Active
STARLINK-6361,2023-099BD,2026-03-21T06:00:02.999808,15.16709460,.0001627,42.9999,172.2570,296.1345,139.2660,0,U,57379,999,567,.59584549E-1,.1287812E-1,0,Active
STARLINK-6366,2023-099BE,2026-03-21T06:00:02.999808,15.16350651,.00025799,43.0000,146.5980,247.9257,37.1576,0,U,57380,999,578,.62175326E-1,.1333936E-1,0,Active
STARLINK-6371,2023-099BF,2026-03-21T06:00:02.999808,15.26736829,.00017743,43.0005,158.1803,272.0902,253.3417,0,U,57381,999,577,.8081584E-3,.21479E-3,0,Active
STARLING 4,2023-100A,2026-03-21T01:05:21.865344,15.06246042,.00074859,99.5122,77.2449,43.7150,316.4663,0,U,57386,999,14663,.6115086E-5,-.1E-7,0,Active
STARLING 2,2023-100B,2026-03-21T05:52:56.100000,15.06249748,.0006449,99.5126,77.5129,53.8725,306.3092,0,U,57387,999,14666,.43804665E-3,.6345E-4,0,Active
STARLING 1,2023-100C,2026-03-21T05:52:31.109664,15.06258856,.00049311,99.5164,78.0752,189.3816,170.7314,0,U,57388,999,14666,.39817214E-3,.5759E-4,0,Active
STARLING 3,2023-100D,2026-03-21T06:25:42.018816,15.11298172,.00063257,99.5104,79.7065,46.2528,313.9219,0,U,57389,999,14678,.42479042E-3,.7066E-4,0,Active
LEMUR-2-MANO,2023-100E,2026-03-21T00:51:28.772352,15.63985597,.00032932,99.4507,106.3553,189.4367,170.6824,0,U,57390,999,14825,.1641357E-2,.157333E-2,0,Active
LEMUR-2-DEVERILL-M-T,2023-100F,2026-03-21T06:04:04.653696,15.35380000,.00064923,99.4565,93.9372,349.8173,10.2932,0,U,57391,999,14773,.9190946E-3,.31597E-3,0,Active
LEO 3,2023-100G,2026-03-21T07:15:36.993600,13.68418163,.00175799,99.5488,205.4981,240.1105,119.8294,0,U,57392,999,13362,.15280652E-4,-.32E-6,0,Active
TIANMU-1 07,2023-101A,2026-03-21T05:35:04.986240,15.29129343,.00045891,97.2697,132.9231,112.0366,248.1363,0,U,57399,999,14820,.26897822E-3,.7534E-4,0,Active
